GPS BIIR-2  (PRN 13)    
1 24876U 97035A   25013.67959214 -.00000031  00000+0  00000+0 0  9998
2 24876  55.7443 118.8995 0086465  54.6441 306.1484  2.00562310201537
GPS BIIR-4  (PRN 20)    
1 26360U 00025A   25014.18041192 -.00000068  00000+0  00000+0 0  9995
2 26360  54.8283  40.2987 0039686 227.4034 224.9876  2.00563083180861
GPS BIIR-8  (PRN 16)    
1 27663U 03005A   25014.59616663  .00000047  00000+0  00000+0 0  9995
2 27663  55.0235 235.5834 0142958  49.1685 321.6054  2.00562879160915
GPS BIIR-9  (PRN 21)    
1 27704U 03010A   25014.47938642 -.00000105  00000+0  00000+0 0  9994
2 27704  55.0470 345.2555 0260049 333.3237 169.3039  2.00570268159700
GPS BIIR-11 (PRN 19)    
1 28190U 04009A   25012.78258095 -.00000053  00000+0  00000+0 0  9994
2 28190  55.2723 296.6519 0099373 156.0440 138.3324  2.00571749152507
GPS BIIR-13 (PRN 02)    
1 28474U 04045A   25014.80425705 -.00000104  00000+0  00000+0 0  9995
2 28474  55.3771 345.7336 0167230 299.2805  60.5420  2.00563414148038
GPS BIIRM-1 (PRN 17)    
1 28874U 05038A   25013.51433242 -.00000047  00000+0  00000+0 0  9990
2 28874  55.3164 294.0903 0135636 288.4132 201.0431  2.00571140141416
GPS BIIRM-2 (PRN 31)    
1 29486U 06042A   25014.48714134  .00000020  00000+0  00000+0 0  9995
2 29486  54.6812 171.9141 0105399  44.6801 327.1676  2.00570437133996
